{"type": "FeatureCollection", "features": [ {"type": "Feature", "properties": {"norad_id": 28649, "name": "IRS-P5 (CARTOSAT-1)", "group": "resource", "lat": 19.25824684223885, "lon": 9.739600129623355, "alt_km": 596.1207003418394, "timestamp": "2025-12-11T22:43:46.927897+00:00", "meta": {"OBJECT_NAME": "IRS-P5 (CARTOSAT-1)", "OBJECT_ID": "2005-017A", "EPOCH": "2025-12-11T12:58:29.809056", "MEAN_MOTION": 14.90397392, "ECCENTRICITY": 0.00012804, "INCLINATION": 97.5498, "RA_OF_ASC_NODE": 12.007, "ARG_OF_PERICENTER": 46.727, "MEAN_ANOMALY": 313.4056, "EPHEMERIS_TYPE": 0, "CLASSIFICATION_TYPE": "U", "NORAD_CAT_ID": 28649, "ELEMENT_SET_NO": 999, "REV_AT_EPOCH": 11586, "BSTAR": 0.00026321563, "MEAN_MOTION_DOT": 2.511e-05, "MEAN_MOTION_DDOT": 0}, "tle": {"line1": "1 28649U 05017A   25345.54062279  .00002511  00000+0  26322-3 0  9992", "line2": "2 28649  97.5498  12.0070 0001280  46.7270 313.4056 14.90397392115860"}}, "geometry": {"type": "Point", "coordinates": [9.739600129623355, 19.25824684223885]}}, {"type": "Feature", "properties": {"norad_id": 28893, "name": "SINAH 1", "group": "resource", "lat": 81.51993060245354, "lon": 37.50694182355444, "alt_km": 666.1799924056122, "timestamp": "2025-12-11T22:43:46.927908+00:00", "meta": {"OBJECT_NAME": "SINAH 1", "OBJECT_ID": "2005-043D", "EPOCH": "2025-12-11T14:07:36.774048", "MEAN_MOTION": 14.63960661, "ECCENTRICITY": 0.00152834, "INCLINATION": 98.2602, "RA_OF_ASC_NODE": 114.1427, "ARG_OF_PERICENTER": 140.4035, "MEAN_ANOMALY": 219.8286, "EPHEMERIS_TYPE": 0, "CLASSIFICATION_TYPE": "U", "NORAD_CAT_ID": 28893, "ELEMENT_SET_NO": 999, "REV_AT_EPOCH": 7307, "BSTAR": 0.00016603615, "MEAN_MOTION_DOT": 8.22e-06, "MEAN_MOTION_DDOT": 0}, "tle": {"line1": "1 28893U 05043D   25345.58862007  .00000822  00000+0  16604-3 0  9998", "line2": "2 28893  98.2602 114.1427 0015283 140.4035 219.8286 14.63960661 73070"}}, "geometry": {"type": "Point", "coordinates": [37.50694182355444, 81.51993060245354]}}, {"type": "Feature", "properties": {"norad_id": 29079, "name": "EROS B", "group": "resource", "lat": 18.856011881988103, "lon": -74.99174830883945, "alt_km": 365.6581923216845, "timestamp": "2025-12-11T22:43:46.927920+00:00", "meta": {"OBJECT_NAME": "EROS B", "OBJECT_ID": "2006-014A", "EPOCH": "2025-12-11T14:23:14.768736", "MEAN_MOTION": 15.67861526, "ECCENTRICITY": 0.00019729, "INCLINATION": 97.3467, "RA_OF_ASC_NODE": 102.1188, "ARG_OF_PERICENTER": 297.2264, "MEAN_ANOMALY": 62.8795, "EPHEMERIS_TYPE": 0, "CLASSIFICATION_TYPE": "U", "NORAD_CAT_ID": 29079, "ELEMENT_SET_NO": 999, "REV_AT_EPOCH": 9062, "BSTAR": 0.0033149762, "MEAN_MOTION_DOT": 0.00380837, "MEAN_MOTION_DDOT": 0}, "tle": {"line1": "1 29079U 06014A   25345.59947649  .00380837  00000+0  33150-2 0  9992", "line2": "2 29079  97.3467 102.1188 0001972 297.2264  62.8795 15.67861526 90628"}}, "geometry": {"type": "Point", "coordinates": [-74.99174830883945, 18.856011881988103]}}, {"type": "Feature", "properties": {"norad_id": 29228, "name": "RESURS-DK 1", "group": "resource", "lat": -48.52931917852257, "lon": -51.68176263815071, "alt_km": 531.3660184502451, "timestamp": "2025-12-11T22:43:46.927931+00:00", "meta": {"OBJECT_NAME": "RESURS-DK 1", "OBJECT_ID": "2006-021A", "EPOCH": "2025-12-11T12:10:38.192736", "MEAN_MOTION": 15.12150737, "ECCENTRICITY": 0.00073592, "INCLINATION": 69.9334, "RA_OF_ASC_NODE": 105.0231, "ARG_OF_PERICENTER": 260.8464, "MEAN_ANOMALY": 99.1869, "EPHEMERIS_TYPE": 0, "CLASSIFICATION_TYPE": "U", "NORAD_CAT_ID": 29228, "ELEMENT_SET_NO": 999, "REV_AT_EPOCH": 7419, "BSTAR": 0.00026953869, "MEAN_MOTION_DOT": 4.555e-05, "MEAN_MOTION_DDOT": 0}, "tle": {"line1": "1 29228U 06021A   25345.50738649  .00004555  00000+0  26954-3 0  9990", "line2": "2 29228  69.9334 105.0231 0007359 260.8464  99.1869 15.12150737 74190"}}, "geometry": {"type": "Point", "coordinates": [-51.68176263815071, -48.52931917852257]}}, {"type": "Feature", "properties": {"norad_id": 29268, "name": "ARIRANG-2 (KOMPSAT-2)", "group": "resource", "lat": -7.725757358650363, "lon": 175.5276871223012, "alt_km": 675.3593101020642, "timestamp": "2025-12-11T22:43:46.927948+00:00", "meta": {"OBJECT_NAME": "ARIRANG-2 (KOMPSAT-2)", "OBJECT_ID": "2006-031A", "EPOCH": "2025-12-11T14:53:49.161696", "MEAN_MOTION": 14.64491361, "ECCENTRICITY": 0.00135609, "INCLINATION": 97.8263, "RA_OF_ASC_NODE": 174.1482, "ARG_OF_PERICENTER": 313.0151, "MEAN_ANOMALY": 119.6004, "EPHEMERIS_TYPE": 0, "CLASSIFICATION_TYPE": "U", "NORAD_CAT_ID": 29268, "ELEMENT_SET_NO": 999, "REV_AT_EPOCH": 3402, "BSTAR": 9.4868529e-05, "MEAN_MOTION_DOT": 4.58e-06, "MEAN_MOTION_DDOT": 0}, "tle": {"line1": "1 29268U 06031A   25345.62070789  .00000458  00000+0  94869-4 0  9991", "line2": "2 29268  97.8263 174.1482 0013560 313.0151 119.6004 14.64491361 34029"}}, "geometry": {"type": "Point", "coordinates": [175.5276871223012, -7.725757358650363]}}, {"type": "Feature", "properties": {"norad_id": 29709, "name": "LAPAN-TUBSAT", "group": "resource", "lat": -45.99842364311373, "lon": 147.57878611280677, "alt_km": 626.5739481198152, "timestamp": "2025-12-11T22:43:46.927970+00:00", "meta": {"OBJECT_NAME": "LAPAN-TUBSAT", "OBJECT_ID": "2007-001A", "EPOCH": "2025-12-11T13:37:55.632000", "MEAN_MOTION": 14.85666333, "ECCENTRICITY": 0.00136733, "INCLINATION": 98.1261, "RA_OF_ASC_NODE": 335.7001, "ARG_OF_PERICENTER": 77.4227, "MEAN_ANOMALY": 282.8516, "EPHEMERIS_TYPE": 0, "CLASSIFICATION_TYPE": "U", "NORAD_CAT_ID": 29709, "ELEMENT_SET_NO": 999, "REV_AT_EPOCH": 2329, "BSTAR": 7.7452567e-05, "MEAN_MOTION_DOT": 6.15e-06, "MEAN_MOTION_DDOT": 0}, "tle": {"line1": "1 29709U 07001A   25345.56800500  .00000615  00000+0  77453-4 0  9999", "line2": "2 29709  98.1261 335.7001 0013673  77.4227 282.8516 14.85666333 23297"}}, "geometry": {"type": "Point", "coordinates": [147.57878611280677, -45.99842364311373]}}, {"type": "Feature", "properties": {"norad_id": 31113, "name": "HAIYANG-1B", "group": "resource", "lat": -81.27680616603146, "lon": 77.50287053184533, "alt_km": 802.7956110105579, "timestamp": "2025-12-11T22:43:46.927991+00:00", "meta": {"OBJECT_NAME": "HAIYANG-1B", "OBJECT_ID": "2007-010A", "EPOCH": "2025-12-11T11:24:52.861248", "MEAN_MOTION": 14.30964496, "ECCENTRICITY": 0.00143096, "INCLINATION": 98.3314, "RA_OF_ASC_NODE": 329.8059, "ARG_OF_PERICENTER": 41.4958, "MEAN_ANOMALY": 318.731, "EPHEMERIS_TYPE": 0, "CLASSIFICATION_TYPE": "U", "NORAD_CAT_ID": 31113, "ELEMENT_SET_NO": 999, "REV_AT_EPOCH": 97378, "BSTAR": 0.00010317662, "MEAN_MOTION_DOT": 2.3e-06, "MEAN_MOTION_DDOT": 0}, "tle": {"line1": "1 31113U 07010A   25345.47561182  .00000230  00000+0  10318-3 0  9990", "line2": "2 31113  98.3314 329.8059 0014309  41.4958 318.7310 14.30964496973786"}}, "geometry": {"type": "Point", "coordinates": [77.50287053184533, -81.27680616603146]}}, {"type": "Feature", "properties": {"norad_id": 31598, "name": "COSMO-SKYMED 1", "group": "resource", "lat": 25.86116430917677, "lon": -4.807810138762858, "alt_km": 578.921281164934, "timestamp": "2025-12-11T22:43:46.928012+00:00", "meta": {"OBJECT_NAME": "COSMO-SKYMED 1", "OBJECT_ID": "2007-023A", "EPOCH": "2025-12-11T14:01:00.803712", "MEAN_MOTION": 14.9574915, "ECCENTRICITY": 0.0001113, "INCLINATION": 97.8835, "RA_OF_ASC_NODE": 170.9757, "ARG_OF_PERICENTER": 87.227, "MEAN_ANOMALY": 272.9078, "EPHEMERIS_TYPE": 0, "CLASSIFICATION_TYPE": "U", "NORAD_CAT_ID": 31598, "ELEMENT_SET_NO": 999, "REV_AT_EPOCH": 173, "BSTAR": 0.00051419605, "MEAN_MOTION_DOT": 5.673e-05, "MEAN_MOTION_DDOT": 0}, "tle": {"line1": "1 31598U 07023A   25345.58403708  .00005673  00000+0  51420-3 0  9997", "line2": "2 31598  97.8835 170.9757 0001113  87.2270 272.9078 14.95749150  1737"}}, "geometry": {"type": "Point", "coordinates": [-4.807810138762858, 25.86116430917677]}}, {"type": "Feature", "properties": {"norad_id": 31698, "name": "TERRASAR-X", "group": "resource", "lat": 74.99731185993225, "lon": -159.45341636905684, "alt_km": 499.995088839436, "timestamp": "2025-12-11T22:43:46.928024+00:00", "meta": {"OBJECT_NAME": "TERRASAR-X", "OBJECT_ID": "2007-026A", "EPOCH": "2025-12-11T11:12:43.517376", "MEAN_MOTION": 15.19155336, "ECCENTRICITY": 0.00018891, "INCLINATION": 97.4455, "RA_OF_ASC_NODE": 350.8663, "ARG_OF_PERICENTER": 92.9175, "MEAN_ANOMALY": 267.2276, "EPHEMERIS_TYPE": 0, "CLASSIFICATION_TYPE": "U", "NORAD_CAT_ID": 31698, "ELEMENT_SET_NO": 999, "REV_AT_EPOCH": 2472, "BSTAR": 9.3381918e-05, "MEAN_MOTION_DOT": 1.895e-05, "MEAN_MOTION_DDOT": 0}, "tle": {"line1": "1 31698U 07026A   25345.46717034  .00001895  00000+0  93382-4 0  9994", "line2": "2 31698  97.4455 350.8663 0001889  92.9175 267.2276 15.19155336 24729"}}, "geometry": {"type": "Point", "coordinates": [-159.45341636905684, 74.99731185993225]}}, {"type": "Feature", "properties": {"norad_id": 32060, "name": "WORLDVIEW-1 (WV-1)", "group": "resource", "lat": 82.4732390935833, "lon": 24.49929755430284, "alt_km": 483.81455741660375, "timestamp": "2025-12-11T22:43:46.928035+00:00", "meta": {"OBJECT_NAME": "WORLDVIEW-1 (WV-1)", "OBJECT_ID": "2007-041A", "EPOCH": "2025-12-11T14:28:01.680672", "MEAN_MOTION": 15.24659372, "ECCENTRICITY": 7.588e-05, "INCLINATION": 97.3834, "RA_OF_ASC_NODE": 103.0996, "ARG_OF_PERICENTER": 105.8476, "MEAN_ANOMALY": 254.2845, "EPHEMERIS_TYPE": 0, "CLASSIFICATION_TYPE": "U", "NORAD_CAT_ID": 32060, "ELEMENT_SET_NO": 999, "REV_AT_EPOCH": 1430, "BSTAR": 0.00053224851, "MEAN_MOTION_DOT": 0.00013088, "MEAN_MOTION_DDOT": 0}, "tle": {"line1": "1 32060U 07041A   25345.60279723  .00013088  00000+0  53225-3 0  9997", "line2": "2 32060  97.3834 103.0996 0000758 105.8476 254.2845 15.24659372 14308"}}, "geometry": {"type": "Point", "coordinates": [24.49929755430284, 82.4732390935833]}}]}